CENTAURI-8              
1 62714U 25009DK  26068.72637183  .00004445  00000+0  38891-3 0  9993
2 62714  97.7096 150.1876 0003020 109.5881 250.5667 14.97228330 62597
STARLINK-34467          
1 64423U 25129M   26068.46105647  .00003858  00000+0  33093-3 0  9997
2 64423  70.0010  75.0123 0002987 271.0135  89.0682 14.98331880 41252
