[{"OBJECT_NAME":"CENTAURI-8","OBJECT_ID":"2025-009DK","EPOCH":"2026-03-09T17:25:58.526112","MEAN_MOTION":14.9722833,"ECCENTRICITY":0.00030201,"INCLINATION":97.7096,"RA_OF_ASC_NODE":150.1876,"ARG_OF_PERICENTER":109.5881,"MEAN_ANOMALY":250.5667,"EPHEMERIS_TYPE":0,"CLASSIFICATION_TYPE":"U","NORAD_CAT_ID":62714,"ELEMENT_SET_NO":999,"REV_AT_EPOCH":6259,"BSTAR":0.00038891127,"MEAN_MOTION_DOT":4.445e-5,"MEAN_MOTION_DDOT":0},{"OBJECT_NAME":"STARLINK-34467","OBJECT_ID":"2025-129M","EPOCH":"2026-03-09T11:03:55.279008","MEAN_MOTION":14.9833188,"ECCENTRICITY":0.00029874,"INCLINATION":70.001,"RA_OF_ASC_NODE":75.0123,"ARG_OF_PERICENTER":271.0135,"MEAN_ANOMALY":89.0682,"EPHEMERIS_TYPE":0,"CLASSIFICATION_TYPE":"U","NORAD_CAT_ID":64423,"ELEMENT_SET_NO":999,"REV_AT_EPOCH":4125,"BSTAR":0.00033092987,"MEAN_MOTION_DOT":3.858e-5,"MEAN_MOTION_DDOT":0}]
